BEIDOU 3 (C01)          
1 36287U 10001A   22362.20752924 -.00000279  00000+0  00000+0 0  9991
2 36287   1.8570  51.2320 0002048 259.4869   1.0815  1.00270598 47456
BEIDOU 5 (C06)          
1 36828U 10036A   22361.91358124 -.00000067  00000+0  00000+0 0  9996
2 36828  54.2022 174.4609 0034671 182.2081 174.2285  1.00295657 45517
BEIDOU 6 (C04)          
1 37210U 10057A   22362.54285544 -.00000111  00000+0  00000+0 0  9990
2 37210   0.8953  49.9668 0006042 172.1974 230.1602  1.00270678 44581
BEIDOU 7 (C07)          
1 37256U 10068A   22361.86211667 -.00000194  00000+0  00000+0 0  9992
2 37256  49.8691 287.3295 0020769 206.4100  16.2942  1.00246220 44082
BEIDOU 8 (C08)          
1 37384U 11013A   22361.78372484 -.00000188  00000+0  00000+0 0  9994
2 37384  60.5706  52.3517 0023931 186.9561 244.8742  1.00257157 42968
BEIDOU 9 (C09)          
1 37763U 11038A   22361.79794438  .00000038  00000+0  00000+0 0  9993
2 37763  54.4792 176.9659 0101543 227.2706  74.0500  1.00283345 41931
BEIDOU 10 (C10)         
1 37948U 11073A   22361.62766833 -.00000158  00000+0  00000+0 0  9991
2 37948  49.9889 286.9844 0086219 221.1641 268.3908  1.00290340 40698
BEIDOU 11 (C05)         
1 38091U 12008A   22362.22097858  .00000057  00000+0  00000+0 0  9998
2 38091   2.0074  71.2026 0010055 312.5020 211.2482  1.00274627 39773
BEIDOU 12 (C11)         
1 38250U 12018A   22361.97490388 -.00000080  00000+0  00000+0 0  9999
2 38250  56.6290 347.1626 0025055 258.1794 100.1583  1.86234430 72682
BEIDOU 13 (C12)         
1 38251U 12018B   22361.61648159 -.00000079  00000+0  00000+0 0  9990
2 38251  56.5438 346.4866 0015948 261.2407 260.8958  1.86234262 72683
BEIDOU 15 (C14)         
1 38775U 12050B   22361.59026913  .00000000  00000+0  00000+0 0  9995
2 38775  55.5201 105.1885 0011174 328.1328  11.8989  1.86231322 70055
BEIDOU 16 (C02)         
1 38953U 12059A   22361.81750156 -.00000174  00000+0  00000+0 0  9993
2 38953   1.4048  82.2228 0009111 291.3910 101.0191  1.00269756 37209
BEIDOU 17 (C31)         
1 40549U 15019A   22360.59488253 -.00000168  00000+0  00000+0 0  9999
2 40549  51.5553 310.5159 0037056 200.7637 250.4693  1.00256027 28369
BEIDOU 18 (C57)         
1 40748U 15037A   22361.50596407 -.00000080  00000+0  00000+0 0  9996
2 40748  55.7912 345.2382 0003535 332.6420  24.5951  1.86233379 50505
BEIDOU 19 (C58)         
1 40749U 15037B   22362.11299405 -.00000082  00000+0  00000+0 0  9995
2 40749  55.7954 345.2091 0006399 306.0097 232.2770  1.86233013 50518
BEIDOU 20 (C18)         
1 40938U 15053A   22362.23258940 -.00000131  00000+0  00000+0 0  9990
2 40938  51.1988 273.6425 0043243 194.9853 165.1576  1.00293785 26646
BEIDOU IGSO-6 (C13)     
1 41434U 16021A   22361.52050279 -.00000165  00000+0  00000+0 0  9991
2 41434  58.3828  50.8451 0049487 222.0557 105.5240  1.00288248 24769
BEIDOU-2 G7 (C03)       
1 41586U 16037A   22361.80098920 -.00000353  00000+0  00000+0 0  9991
2 41586   1.8120  69.9989 0007689 347.6997  77.4673  1.00270317 24082
BEIDOU-3 M1 (C19)       
1 43001U 17069A   22361.48416741  .00000000  00000+0  00000+0 0  9998
2 43001  55.6734 105.2177 0008092 285.4567 139.8621  1.86231569 34995
BEIDOU-3 M2 (C20)       
1 43002U 17069B   22361.49153150  .00000000  00000+0  00000+0 0  9992
2 43002  55.6727 105.2536 0006078 312.2567 160.7745  1.86231299 34987
BEIDOU-3 M3 (C27)       
1 43107U 18003A   22361.33886848 -.00000081  00000+0  00000+0 0  9997
2 43107  55.2425 346.0768 0003101  43.9298 133.2007  1.86232511 33746
BEIDOU-3 M4 (C28)       
1 43108U 18003B   22361.28076919 -.00000081  00000+0  00000+0 0  9992
2 43108  55.2374 346.0665 0004615 261.5463 279.4370  1.86230965 33746
BEIDOU-3 M5 (C21)       
1 43207U 18018A   22361.45454771  .00000001  00000+0  00000+0 0  9994
2 43207  55.6310 105.3267 0003362 347.7428  12.2432  1.86231439 33132
BEIDOU-3 M6 (C22)       
1 43208U 18018B   22360.98423813  .00000002  00000+0  00000+0 0  9996
2 43208  55.6307 105.3468 0005703 298.8724  61.0620  1.86231623 33123
BEIDOU-3 M7 (C29)       
1 43245U 18029A   22361.47223117 -.00000081  00000+0  00000+0 0  9997
2 43245  55.1500 343.8261 0001847 275.5459 261.5845  1.86232664 32284
BEIDOU-3 M8 (C30)       
1 43246U 18029B   22361.40741546 -.00000081  00000+0  10000-3 0  9997
2 43246  55.1460 343.8579 0004507 339.1057 201.2611  1.86232877 32276
BEIDOU IGSO-7 (C16)     
1 43539U 18057A   22361.91659705 -.00000073  00000+0  00000+0 0  9990
2 43539  55.0933 174.0193 0051561 225.0294 138.8442  1.00251124 16450
BEIDOU-3 M9 (C23)       
1 43581U 18062A   22361.63804911  .00000040  00000+0  00000+0 0  9996
2 43581  54.2251 225.4764 0002709 322.5366 223.9929  1.86232018 30029
BEIDOU-3 M10 (C24)      
1 43582U 18062B   22361.59923671  .00000040  00000+0  00000+0 0  9997
2 43582  54.2250 225.4670 0006784  20.1774 232.2911  1.86231623 30021
BEIDOU-3 M11 (C25)      
1 43602U 18067A   22361.69217597  .00000042  00000+0  00000+0 0  9991
2 43602  54.3093 224.0967 0008018  19.3929 336.3608  1.86231600 29514
BEIDOU-3 M12 (C26)      
1 43603U 18067B   22361.71703521  .00000042  00000+0  00000+0 0  9992
2 43603  54.3066 224.0620 0004940  13.9036 268.8572  1.86231543 29537
BEIDOU-3 M13 (C32)      
1 43622U 18072A   22362.26768178 -.00000004  00000+0  00000+0 0  9998
2 43622  55.6006 104.8477 0005483 275.5871  45.0541  1.86231393 29058
BEIDOU-3 M14 (C33)      
1 43623U 18072B   22361.65881667 -.00000001  00000+0  00000+0 0  9997
2 43623  55.6020 104.8600 0002572 309.5884  53.0855  1.86231450 29052
BEIDOU-3 M15 (C34)      
1 43647U 18078A   22362.07445860 -.00000083  00000+0  10000-3 0  9992
2 43647  55.0466 343.9461 0007452 358.6890 178.1524  1.86213701 28567
BEIDOU-3 M16 (C35)      
1 43648U 18078B   22361.72292757 -.00000082  00000+0  00000+0 0  9993
2 43648  55.0411 343.9656 0004118 354.8844 214.0638  1.86232256 28570
BEIDOU-3 G1 (C59)       
1 43683U 18085A   22361.81121788 -.00000276  00000+0  00000+0 0  9990
2 43683   1.0357 148.0787 0003732 187.6070 192.6773  1.00268260 15355
BEIDOU-3 M17 (C36)      
1 43706U 18093A   22361.02443481  .00000045  00000+0  00000+0 0  9998
2 43706  54.3072 225.3962 0007288 290.4434  69.5596  1.86231817 27920
BEIDOU-3 M18 (C37)      
1 43707U 18093B   22362.20157920  .00000039  00000+0  00000+0 0  9993
2 43707  54.3074 225.3473 0007244 323.0777 197.5626  1.86232334 27937
BEIDOU-3 IGSO-1 (C38)   
1 44204U 19023A   22361.62434948 -.00000225  00000+0  00000+0 0  9991
2 44204  56.8399  50.9084 0023972 196.6752 189.3662  1.00251544 13653
BEIDOU-2 G8             
1 44231U 19027A   22361.97410346 -.00000248  00000+0  00000+0 0  9994
2 44231   1.3335  80.4328 0005592 135.4174  15.6314  1.00265310 13363
BEIDOU-3 IGSO-2 (C39)   
1 44337U 19035A   22362.37604515 -.00000079  00000+0  00000+0 0  9990
2 44337  55.1114 170.0053 0029640 192.3096 345.9501  1.00298318 12997
BEIDOU-3 M23 (C45)      
1 44542U 19061A   22360.96098377  .00000045  00000+0  00000+0 0  9995
2 44542  54.5341 225.5786 0008888 359.5617   0.5195  1.86231411 22175
BEIDOU-3 M24 (C46)      
1 44543U 19061B   22361.75820318  .00000040  00000+0  00000+0 0  9997
2 44543  54.5318 225.5217 0005843 354.1507  91.9784  1.86231926 22186
BEIDOU-3 IGSO-3         
1 44709U 19073A   22362.54102660 -.00000202  00000+0  10000-3 0  9991
2 44709  56.9504 294.3652 0025484 182.0627 291.6158  1.00249999 11743
BEIDOU-3 M21            
1 44793U 19078A   22361.66892375 -.00000082  00000+0  10000-3 0  9996
2 44793  54.8942 343.9603 0006250 358.6109 220.3107  1.86232254 21049
BEIDOU-3 M22            
1 44794U 19078B   22361.74006083 -.00000082  00000+0  00000+0 0  9994
2 44794  54.8676 343.9454 0004411 346.1235 192.4948  1.86232753 21043
BEIDOU-3 M19            
1 44864U 19090A   22361.73351039 -.00000001  00000+0  00000+0 0  9990
2 44864  55.5351 105.0663 0016117 267.5099 100.9781  1.86231823 20638
BEIDOU-3 M20            
1 44865U 19090B   22362.11785508 -.00000003  00000+0  00000+0 0  9998
2 44865  55.5365 105.0854 0013901 281.4676  74.5396  1.86231780 20607
BEIDOU-3 G2             
1 45344U 20017A   22361.93833478 -.00000140  00000+0  00000+0 0  9993
2 45344   1.9918   2.4324 0001303 224.0953 287.6565  1.00272736 10566
BEIDOU-3 G3             
1 45807U 20040A   22361.80653811 -.00000351  00000+0  00000+0 0  9994
2 45807   1.0195 311.7601 0008452 340.4757 204.9550  1.00271071  9362
